{
  "norad_id": 68609,
  "name": "STARLINK-37250",
  "history": [
    {
      "epoch": "2026-04-16T19:15:55.465920Z",
      "apogee_km": 328.8809456861727,
      "perigee_km": 326.9097745342415,
      "latitude_deg": -7.723095584455707e-06,
      "longitude_deg": 170.49029223894948,
      "height_km": 330.7986219822694,
      "semi_major_axis_km": 6706.032360110206,
      "eccentricity": 0.00014697,
      "inclination_deg": 97.2852,
      "raan_deg": 304.4166,
      "arg_perigee_deg": 74.077,
      "mean_anomaly_deg": 286.066,
      "mean_motion_rev_day": 15.80899619
    }
  ]
}