STARLINK-37250          
1 68609U 26073H   26106.80272530  .00227791  00000+0  11548-2 0  9997
2 68609  97.2852 304.4166 0001469  74.0770 286.0660 15.80899619  1558
